[{"OBJECT_NAME":"LYNK TOWER 6","OBJECT_ID":"2024-043AB","EPOCH":"2026-03-09T21:28:38.303328","MEAN_MOTION":15.29548678,"ECCENTRICITY":0.00097492,"INCLINATION":97.5426,"RA_OF_ASC_NODE":204.1954,"ARG_OF_PERICENTER":232.0253,"MEAN_ANOMALY":128.0107,"EPHEMERIS_TYPE":0,"CLASSIFICATION_TYPE":"U","NORAD_CAT_ID":59123,"ELEMENT_SET_NO":999,"REV_AT_EPOCH":11184,"BSTAR":0.00040142146,"MEAN_MOTION_DOT":0.0001144,"MEAN_MOTION_DDOT":0},{"OBJECT_NAME":"STARLINK-33776","OBJECT_ID":"2025-093R","EPOCH":"2026-03-09T10:08:58.061472","MEAN_MOTION":15.27618549,"ECCENTRICITY":0.00020593,"INCLINATION":43.0043,"RA_OF_ASC_NODE":79.2097,"ARG_OF_PERICENTER":260.6442,"MEAN_ANOMALY":99.4177,"EPHEMERIS_TYPE":0,"CLASSIFICATION_TYPE":"U","NORAD_CAT_ID":63851,"ELEMENT_SET_NO":999,"REV_AT_EPOCH":4792,"BSTAR":0.0014489719,"MEAN_MOTION_DOT":0.00039874,"MEAN_MOTION_DDOT":0}]
